     2.11           N: GPS NAV DATA                         RINEX VERSION / TYPE
teqc  2020Oct7      UNAVCO Archive Ops  20230212 00:42:23UTCPGM / RUN BY / DATE
Linux 2.4.21-27.ELsmp|Opteron|gcc|Linux 64|=+               COMMENT
    2.9802D-08  2.2352D-08 -1.1921D-07  5.9605D-08          ION ALPHA
    1.4541D+05 -8.1920D+04  0.0000D+00 -4.5875D+05          ION BETA
   -2.793967723846D-09-7.105427357601D-15    61440     2249 DELTA-UTC: A0,A1,T,W
                                                            END OF HEADER
 3 23  2 10 23 59 28.0-3.645541146398D-04 4.320099833421D-12 0.000000000000D+00
    2.000000000000D+00 8.125000000000D+00 4.436970531918D-09 1.455031648823D-01
    3.986060619354D-07 4.458762123249D-03 5.200505256653D-06 5.153720983505D+03
    5.183680000000D+05-2.235174179077D-08-9.821844116260D-01 4.284083843231D-08
    9.772824745035D-01 2.869375000000D+02 1.017256213627D+00-8.217127990649D-09
    1.585780339831D-10 1.000000000000D+00 2.248000000000D+03 0.000000000000D+00
    2.000000000000D+00 0.000000000000D+00 1.862645149231D-09 2.000000000000D+00
    5.169780000000D+05 4.000000000000D+00
19 23  2 11  0  0  0.0 2.760426141322D-04 5.115907697473D-12 0.000000000000D+00
    6.800000000000D+01-3.978125000000D+01 4.308750905342D-09-6.580332253137D-01
   -2.020969986916D-06 9.090921259485D-03 7.819384336472D-06 5.153604562759D+03
    5.184000000000D+05-9.499490261078D-08-2.970520667961D+00-1.024454832077D-07
    9.749526165413D-01 2.383125000000D+02 2.238915591067D+00-8.111409301327D-09
   -2.453673633927D-10 1.000000000000D+00 2.248000000000D+03 0.000000000000D+00
    2.000000000000D+00 0.000000000000D+00-1.536682248116D-08 6.800000000000D+01
    5.112180000000D+05 4.000000000000D+00
11 23  2 11  0  0  0.0-1.009218394756D-04-1.000444171950D-11 0.000000000000D+00
    9.400000000000D+01 2.209375000000D+01 4.243748197718D-09 2.760131317977D+00
    1.087784767151D-06 7.640083786100D-04 9.259209036827D-06 5.153707387924D+03
    5.184000000000D+05-1.303851604462D-08-1.978660735596D+00-1.676380634308D-08
    9.647074223364D-01 2.031875000000D+02-2.677396879847D+00-7.944259481724D-09
    1.157191058795D-10 1.000000000000D+00 2.248000000000D+03 0.000000000000D+00
    2.000000000000D+00 0.000000000000D+00-8.847564458847D-09 8.620000000000D+02
    5.143860000000D+05 4.000000000000D+00
17 23  2 11  0  0  0.0 6.992248818278D-04 2.387423592154D-12 0.000000000000D+00
    1.020000000000D+02-3.978125000000D+01 4.239819462642D-09-2.795440980217D+00
   -1.890584826469D-06 1.367210492026D-02 7.316470146179D-06 5.153713844299D+03
    5.184000000000D+05 1.713633537292D-07-3.015116499682D+00 1.173466444016D-07
    9.759471023999D-01 2.444062500000D+02-1.421635960341D+00-7.753180093929D-09
   -2.864405028253D-10 1.000000000000D+00 2.248000000000D+03 0.000000000000D+00
    2.000000000000D+00 0.000000000000D+00-1.117587089539D-08 1.020000000000D+02
    5.112180000000D+05 4.000000000000D+00
14 23  2 11  0  0  0.0-3.003561869264D-05 8.753886504564D-12 0.000000000000D+00
    5.000000000000D+00 4.093750000000D+01 5.126284958916D-09-4.339535383067D-02
    2.130866050720D-06 2.638448611833D-03 5.023553967476D-06 5.153662691116D+03
    5.184000000000D+05-3.725290298462D-09 2.192336457899D+00 2.980232238770D-08
    9.494952233387D-01 2.760937500000D+02-3.081739926335D+00-8.481067556220D-09
    1.246480492344D-10 1.000000000000D+00 2.248000000000D+03 0.000000000000D+00
    2.000000000000D+00 0.000000000000D+00-7.916241884232D-09 5.000000000000D+00
    5.112180000000D+05 4.000000000000D+00
 6 23  2 11  0  0  0.0 5.709063261747D-04 4.547473508865D-12 0.000000000000D+00
    8.700000000000D+01 1.237500000000D+01 3.766228307098D-09 1.543423684169D+00
    6.966292858124D-07 2.911807503551D-03 9.527429938316D-06 5.153610145569D+03
    5.184000000000D+05 5.029141902924D-08-2.022377520324D+00-1.862645149231D-08
    9.886318280725D-01 2.065312500000D+02-8.428410154600D-01-7.672105288266D-09
    6.607418082628D-11 1.000000000000D+00 2.248000000000D+03 0.000000000000D+00
    2.000000000000D+00 0.000000000000D+00 3.725290298462D-09 8.700000000000D+01
    5.112180000000D+05 4.000000000000D+00
12 23  2 11  0  0  0.0-3.388337790966D-04-4.547473508865D-12 0.000000000000D+00
    3.700000000000D+01 3.912500000000D+01 4.818414992039D-09-9.739218678693D-02
    1.903623342514D-06 8.916007820517D-03 4.805624485016D-06 5.153656927109D+03
    5.184000000000D+05-7.636845111847D-08 2.229348498891D+00 1.098960638046D-07
    9.661558765446D-01 2.945000000000D+02 1.333216909287D+00-8.442494520927D-09
    1.071473202588D-10 1.000000000000D+00 2.248000000000D+03 0.000000000000D+00
    2.800000000000D+00 0.000000000000D+00-1.257285475731D-08 3.700000000000D+01
    5.122380000000D+05 4.000000000000D+00
24 23  2 11  0  0  0.0-6.846012547612D-05-1.614353095647D-11 0.000000000000D+00
    3.200000000000D+01 2.140625000000D+01 4.983779022972D-09 1.577597803064D+00
    1.078471541405D-06 1.371233677492D-02 1.090578734875D-05 5.153667715073D+03
    5.184000000000D+05-2.998858690262D-07 1.025641070502D+00 3.725290298462D-09
    9.340106962888D-01 1.566875000000D+02 8.838246259518D-01-8.337490147073D-09
    9.321816862518D-11 1.000000000000D+00 2.248000000000D+03 0.000000000000D+00
    2.000000000000D+00 0.000000000000D+00 2.328306436539D-09 3.200000000000D+01
    5.112180000000D+05 4.000000000000D+00
19 23  2 11  2  0  0.0 2.760789357126D-04 5.115907697473D-12 0.000000000000D+00
    7.900000000000D+01-4.525000000000D+01 4.370896351092D-09 3.921514763516D-01
   -2.449378371239D-06 9.091388084926D-03 7.705762982368D-06 5.153605360031D+03
    5.256000000000D+05 3.539025783539D-08-2.970578777993D+00-1.136213541031D-07
    9.749503329262D-01 2.421250000000D+02 2.238952755038D+00-8.170340327470D-09
   -3.353711124101D-10 1.000000000000D+00 2.248000000000D+03 0.000000000000D+00
    2.000000000000D+00 0.000000000000D+00-1.536682248116D-08 7.900000000000D+01
    5.184180000000D+05 4.000000000000D+00
 6 23  2 11  2  0  0.0 5.709393881261D-04 4.547473508865D-12 0.000000000000D+00
    9.200000000000D+01 1.081250000000D+01 3.811587339341D-09 2.593420144850D+00
    8.288770914078D-07 2.910866867751D-03 1.025944948196D-05 5.153612052917D+03
    5.256000000000D+05 8.009374141693D-08-2.022433014659D+00 5.215406417847D-08
    9.886323956847D-01 1.961250000000D+02-8.426227363792D-01-7.679962758418D-09
    1.160762636137D-10 1.000000000000D+00 2.248000000000D+03 0.000000000000D+00
    2.000000000000D+00 0.000000000000D+00 3.725290298462D-09 9.200000000000D+01
    5.184180000000D+05 4.000000000000D+00
 3 23  2 11  1 59 28.0-3.645233809948D-04 4.320099833421D-12 0.000000000000D+00
    2.500000000000D+01 1.087500000000D+01 4.444828002070D-09 1.195723219426D+00
    5.066394805908D-07 4.458628827706D-03 5.144625902176D-06 5.153720420837D+03
    5.255680000000D+05-6.146728992462D-08-9.822435939769D-01 3.539025783539D-08
    9.772836097279D-01 2.883750000000D+02 1.017187583751D+00-8.204627469952D-09
    1.660783464012D-10 1.000000000000D+00 2.248000000000D+03 0.000000000000D+00
    2.000000000000D+00 0.000000000000D+00 1.862645149231D-09 2.500000000000D+01
    5.184180000000D+05 4.000000000000D+00
24 23  2 11  2  0  0.0-6.857560947537D-05-1.614353095647D-11 0.000000000000D+00
    3.300000000000D+01 1.728125000000D+01 4.807343102279D-09 2.627780336684D+00
    8.363276720047D-07 1.371266378555D-02 1.084618270397D-05 5.153667491913D+03
    5.256000000000D+05 3.166496753693D-08 1.025582022739D+00-1.862645149231D-07
    9.340132242113D-01 1.547812500000D+02 8.838292165888D-01-7.971403469522D-09
    1.464346710204D-10 1.000000000000D+00 2.248000000000D+03 0.000000000000D+00
    2.000000000000D+00 0.000000000000D+00 2.328306436539D-09 3.300000000000D+01
    5.184180000000D+05 4.000000000000D+00
12 23  2 11  2  0  0.0-3.388663753867D-04-4.547473508865D-12 0.000000000000D+00
    3.800000000000D+01 3.793750000000D+01 4.696981362413D-09 9.527506066642D-01
    1.868233084679D-06 8.917443803512D-03 5.090609192848D-06 5.153659778595D+03
    5.256000000000D+05-1.452863216400D-07 2.229287821437D+00 3.725290298462D-08
    9.661564909702D-01 2.837187500000D+02 1.333265779528D+00-8.418207795002D-09
    8.928943354902D-11 1.000000000000D+00 2.248000000000D+03 0.000000000000D+00
    4.000000000000D+00 0.000000000000D+00-1.257285475731D-08 3.800000000000D+01
    5.184180000000D+05 4.000000000000D+00
17 23  2 11  2  0  0.0 6.992425769567D-04 2.387423592154D-12 0.000000000000D+00
    1.030000000000D+02-4.040625000000D+01 4.316608375494D-09-1.745278542702D+00
   -1.801177859306D-06 1.367204845883D-02 7.409602403641D-06 5.153714059830D+03
    5.256000000000D+05 3.911554813385D-08-3.015172244175D+00 3.762543201447D-07
    9.759439980877D-01 2.452187500000D+02-1.421644218514D+00-7.966403261244D-09
   -3.521575259173D-10 1.000000000000D+00 2.248000000000D+03 0.000000000000D+00
    2.800000000000D+00 0.000000000000D+00-1.117587089539D-08 1.030000000000D+02
    5.184180000000D+05 4.000000000000D+00
11 23  2 11  2  0  0.0-1.009940169752D-04-1.000444171950D-11 0.000000000000D+00
    9.500000000000D+01 1.112500000000D+01 4.360538776800D-09-2.473218385142D+00
    7.338821887970D-07 7.655929075554D-04 9.378418326378D-06 5.153704372406D+03
    5.256000000000D+05 1.862645149231D-08-1.978718147816D+00-4.656612873077D-08
    9.647082181638D-01 1.994062500000D+02-2.677072771809D+00-7.971403469522D-09
    1.378628853997D-10 1.000000000000D+00 2.248000000000D+03 0.000000000000D+00
    2.000000000000D+00 0.000000000000D+00-8.847564458847D-09 8.630000000000D+02
    5.184180000000D+05 4.000000000000D+00
